{
  "type": "FeatureCollection",
  "features": [
    {
      "type": "Feature",
      "properties": {
        "norad_id": 31307,
        "name": "GALAXY 17 (G-17)",
        "group": "intelsat",
        "lat": 2.4993684885349614,
        "lon": 170.80446896689855,
        "alt_km": 35780.035641323215,
        "timestamp": "2025-12-14T11:29:49.724238+00:00",
        "meta_object_name": "GALAXY 17 (G-17)",
        "meta_object_id": "2007-016B",
        "meta_epoch": "2025-12-13T13:02:45.580704",
        "meta_mean_motion": 1.00272407,
        "meta_eccentricity": 0.00057594,
        "meta_inclination": 2.5023,
        "meta_ra_of_asc_node": 82.2769,
        "meta_arg_of_pericenter": 165.1562,
        "meta_mean_anomaly": 305.7517,
        "meta_ephemeris_type": 0,
        "meta_classification_type": "U",
        "meta_norad_cat_id": 31307,
        "meta_element_set_no": 999,
        "meta_rev_at_epoch": 6794,
        "meta_bstar": 0,
        "meta_mean_motion_dot": -1.92e-06,
        "meta_mean_motion_ddot": 0,
        "tle_line1": "1 31307U 07016B   25347.54358311 -.00000192  00000+0  00000+0 0  9990",
        "tle_line2": "2 31307   2.5023  82.2769 0005759 165.1562 305.7517  1.00272407 67941"
      },
      "geometry": {
        "type": "Point",
        "coordinates": [
          170.80446896689855,
          2.4993684885349614
        ]
      }
    },
    {
      "type": "Feature",
      "properties": {
        "norad_id": 31862,
        "name": "DIRECTV 10",
        "group": "intelsat",
        "lat": -0.0011246502476778743,
        "lon": 153.05275932722395,
        "alt_km": 35785.75905755734,
        "timestamp": "2025-12-14T11:29:49.724250+00:00",
        "meta_object_name": "DIRECTV 10",
        "meta_object_id": "2007-032A",
        "meta_epoch": "2025-12-12T23:15:53.301024",
        "meta_mean_motion": 1.0027112,
        "meta_eccentricity": 2.941e-05,
        "meta_inclination": 0.0079,
        "meta_ra_of_asc_node": 209.5146,
        "meta_arg_of_pericenter": 8.2783,
        "meta_mean_anomaly": 110.3026,
        "meta_ephemeris_type": 0,
        "meta_classification_type": "U",
        "meta_norad_cat_id": 31862,
        "meta_element_set_no": 999,
        "meta_rev_at_epoch": 4372,
        "meta_bstar": 0,
        "meta_mean_motion_dot": -9e-07,
        "meta_mean_motion_ddot": 0,
        "tle_line1": "1 31862U 07032A   25346.96936691 -.00000090  00000+0  00000+0 0  9999",
        "tle_line2": "2 31862   0.0079 209.5146 0000294   8.2783 110.3026  1.00271120 43721"
      },
      "geometry": {
        "type": "Point",
        "coordinates": [
          153.05275932722395,
          -0.0011246502476778743
        ]
      }
    },
    {
      "type": "Feature",
      "properties": {
        "norad_id": 32253,
        "name": "INTELSAT 11 (IS-11)",
        "group": "intelsat",
        "lat": 1.687693094825494,
        "lon": 113.75346796035934,
        "alt_km": 36157.99153872985,
        "timestamp": "2025-12-14T11:29:49.724261+00:00",
        "meta_object_name": "INTELSAT 11 (IS-11)",
        "meta_object_id": "2007-044B",
        "meta_epoch": "2025-12-13T14:30:14.702976",
        "meta_mean_motion": 0.99049073,
        "meta_eccentricity": 0.00088133,
        "meta_inclination": 3.0826,
        "meta_ra_of_asc_node": 80.9675,
        "meta_arg_of_pericenter": 166.3126,
        "meta_mean_anomaly": 274.6831,
        "meta_ephemeris_type": 0,
        "meta_classification_type": "U",
        "meta_norad_cat_id": 32253,
        "meta_element_set_no": 999,
        "meta_rev_at_epoch": 6661,
        "meta_bstar": 0,
        "meta_mean_motion_dot": 7.5e-07,
        "meta_mean_motion_ddot": 0,
        "tle_line1": "1 32253U 07044B   25347.60433684  .00000075  00000+0  00000+0 0  9995",
        "tle_line2": "2 32253   3.0826  80.9675 0008813 166.3126 274.6831  0.99049073 66617"
      },
      "geometry": {
        "type": "Point",
        "coordinates": [
          113.75346796035934,
          1.687693094825494
        ]
      }
    },
    {
      "type": "Feature",
      "properties": {
        "norad_id": 32388,
        "name": "HORIZONS-2",
        "group": "intelsat",
        "lat": 2.0908768018313433,
        "lon": -178.01455057950577,
        "alt_km": 35787.10468951662,
        "timestamp": "2025-12-14T11:29:49.724273+00:00",
        "meta_object_name": "HORIZONS-2",
        "meta_object_id": "2007-063B",
        "meta_epoch": "2025-12-13T13:05:52.781856",
        "meta_mean_motion": 1.00269665,
        "meta_eccentricity": 0.00048599,
        "meta_inclination": 2.1237,
        "meta_ra_of_asc_node": 82.9531,
        "meta_arg_of_pericenter": 190.8803,
        "meta_mean_anomaly": 291.3082,
        "meta_ephemeris_type": 0,
        "meta_classification_type": "U",
        "meta_norad_cat_id": 32388,
        "meta_element_set_no": 999,
        "meta_rev_at_epoch": 6595,
        "meta_bstar": 0,
        "meta_mean_motion_dot": -2.39e-06,
        "meta_mean_motion_ddot": 0,
        "tle_line1": "1 32388U 07063B   25347.54574979 -.00000239  00000+0  00000+0 0  9994",
        "tle_line2": "2 32388   2.1237  82.9531 0004859 190.8803 291.3082  1.00269665 65959"
      },
      "geometry": {
        "type": "Point",
        "coordinates": [
          -178.01455057950577,
          2.0908768018313433
        ]
      }
    },
    {
      "type": "Feature",
      "properties": {
        "norad_id": 32729,
        "name": "DIRECTV 11",
        "group": "intelsat",
        "lat": -0.00023119549330560813,
        "lon": 156.67540382534992,
        "alt_km": 35783.787191095245,
        "timestamp": "2025-12-14T11:29:49.724285+00:00",
        "meta_object_name": "DIRECTV 11",
        "meta_object_id": "2008-013A",
        "meta_epoch": "2025-12-13T11:59:49.943040",
        "meta_mean_motion": 1.00277282,
        "meta_eccentricity": 3.64e-05,
        "meta_inclination": 0.023,
        "meta_ra_of_asc_node": 162.1011,
        "meta_arg_of_pericenter": 53.9112,
        "meta_mean_anomaly": 307.1925,
        "meta_ephemeris_type": 0,
        "meta_classification_type": "U",
        "meta_norad_cat_id": 32729,
        "meta_element_set_no": 999,
        "meta_rev_at_epoch": 4373,
        "meta_bstar": 0,
        "meta_mean_motion_dot": -1.12e-06,
        "meta_mean_motion_ddot": 0,
        "tle_line1": "1 32729U 08013A   25347.49988360 -.00000112  00000+0  00000+0 0  9996",
        "tle_line2": "2 32729   0.0230 162.1011 0000364  53.9112 307.1925  1.00277282 43739"
      },
      "geometry": {
        "type": "Point",
        "coordinates": [
          156.67540382534992,
          -0.00023119549330560813
        ]
      }
    },
    {
      "type": "Feature",
      "properties": {
        "norad_id": 32951,
        "name": "GALAXY 18 (G-18)",
        "group": "intelsat",
        "lat": 0.012018703728687711,
        "lon": 132.81261637676585,
        "alt_km": 35794.69361574955,
        "timestamp": "2025-12-14T11:29:49.724297+00:00",
        "meta_object_name": "GALAXY 18 (G-18)",
        "meta_object_id": "2008-024A",
        "meta_epoch": "2025-12-13T12:59:53.744928",
        "meta_mean_motion": 1.00271876,
        "meta_eccentricity": 0.0002944,
        "meta_inclination": 0.0176,
        "meta_ra_of_asc_node": 330.5245,
        "meta_arg_of_pericenter": 296.6133,
        "meta_mean_anomaly": 247.3005,
        "meta_ephemeris_type": 0,
        "meta_classification_type": "U",
        "meta_norad_cat_id": 32951,
        "meta_element_set_no": 999,
        "meta_rev_at_epoch": 4399,
        "meta_bstar": 0,
        "meta_mean_motion_dot": 4e-07,
        "meta_mean_motion_ddot": 0,
        "tle_line1": "1 32951U 08024A   25347.54159427  .00000040  00000+0  00000+0 0  9994",
        "tle_line2": "2 32951   0.0176 330.5245 0002944 296.6133 247.3005  1.00271876 43995"
      },
      "geometry": {
        "type": "Point",
        "coordinates": [
          132.81261637676585,
          0.012018703728687711
        ]
      }
    },
    {
      "type": "Feature",
      "properties": {
        "norad_id": 33153,
        "name": "INTELSAT 25 (IS-25)",
        "group": "intelsat",
        "lat": 1.3640010664939948,
        "lon": -135.6588880354099,
        "alt_km": 35769.55957744471,
        "timestamp": "2025-12-14T11:29:49.724309+00:00",
        "meta_object_name": "INTELSAT 25 (IS-25)",
        "meta_object_id": "2008-034A",
        "meta_epoch": "2025-12-13T11:35:16.459296",
        "meta_mean_motion": 1.00271725,
        "meta_eccentricity": 0.00049673,
        "meta_inclination": 2.2298,
        "meta_ra_of_asc_node": 82.642,
        "meta_arg_of_pericenter": 180.3175,
        "meta_mean_anomaly": 321.7821,
        "meta_ephemeris_type": 0,
        "meta_classification_type": "U",
        "meta_norad_cat_id": 33153,
        "meta_element_set_no": 999,
        "meta_rev_at_epoch": 6383,
        "meta_bstar": 0,
        "meta_mean_motion_dot": -2.09e-06,
        "meta_mean_motion_ddot": 0,
        "tle_line1": "1 33153U 08034A   25347.48282939 -.00000209  00000+0  00000+0 0  9996",
        "tle_line2": "2 33153   2.2298  82.6420 0004967 180.3175 321.7821  1.00271725 63832"
      },
      "geometry": {
        "type": "Point",
        "coordinates": [
          -135.6588880354099,
          1.3640010664939948
        ]
      }
    }
  ]
}